NORAD_CAT_ID,OBJECT_NAME,OBJECT_TYPE,EPOCH,MEAN_MOTION,ECCENTRICITY,INCLINATION,RA_OF_ASC_NODE,ARG_OF_PERICENTER,MEAN_ANOMALY,BSTAR,MEAN_MOTION_DOT,MEAN_MOTION_DDOT,TLE_LINE0,TLE_LINE1,TLE_LINE2,SEMIMAJOR_AXIS,PERIOD,APOGEE,PERIGEE,DECAYED
53626.0,STARLINK-4554,PAYLOAD,2023-08-27 17:41:08,15.08839169,0.0001423,53.2182,66.0343,96.2825,263.8329,1.7906e-06,-2.59e-06,0.0,0 STARLINK-4554,1 53626U 22104AQ  23239.73690405 -.00000259  00000-0  17906-5 0  9999,2 53626  53.2182  66.0343 0001423  96.2825 263.8329 15.08839169 55439,6917.883,95.438,540.732,538.764,0.0
53626.0,STARLINK-4554,PAYLOAD,2023-08-27 19:16:31,15.08840271,0.0001304,53.2182,65.7374,106.7542,253.3593,-1.821e-05,-5.78e-06,0.0,0 STARLINK-4554,1 53626U 22104AQ  23239.80314331 -.00000578  00000-0 -18210-4 0  9991,2 53626  53.2182  65.7374 0001304 106.7542 253.3593 15.08840271 56131,6917.88,95.438,540.647,538.842,0.0
53626.0,STARLINK-4554,PAYLOAD,2023-08-28 15:56:31,15.08845981,0.0001472,53.2183,61.8707,113.5652,246.5495,4.1576e-05,3.74e-06,0.0,0 STARLINK-4554,1 53626U 22104AQ  23240.66425776  .00000374  00000-0  41576-4 0  9996,2 53626  53.2183  61.8707 0001472 113.5652 246.5495 15.08845981 55578,6917.862,95.437,540.745,538.709,0.0
53626.0,STARLINK-4554,PAYLOAD,2023-08-28 17:31:54,15.08846034,0.0001424,53.2183,61.5743,106.7958,253.319,4.8574e-05,4.85e-06,0.0,0 STARLINK-4554,1 53626U 22104AQ  23240.73049754  .00000485  00000-0  48574-4 0  9990,2 53626  53.2183  61.5743 0001424 106.7958 253.3190 15.08846034 56271,6917.862,95.437,540.712,538.742,0.0
53626.0,STARLINK-4554,PAYLOAD,2023-08-29 04:39:37,15.08836181,0.0001377,53.2183,59.4905,90.9152,269.1998,1.673e-05,-2.2e-07,0.0,0 STARLINK-4554,1 53626U 22104AQ  23241.19418458 -.00000022  00000-0  16730-4 0  9999,2 53626  53.2183  59.4905 0001377  90.9152 269.1998 15.08836181 55658,6917.892,95.438,540.71,538.804,0.0
53626.0,STARLINK-4554,PAYLOAD,2023-08-29 17:22:42,15.08836087,0.0001251,53.2182,57.1156,90.0507,270.0629,3.528e-05,2.74e-06,0.0,0 STARLINK-4554,1 53626U 22104AQ  23241.72410667  .00000274  00000-0  35280-4 0  9991,2 53626  53.2182  57.1156 0001251  90.0507 270.0629 15.08836087 56429,6917.892,95.438,540.623,538.892,0.0
53626.0,STARLINK-4554,PAYLOAD,2023-08-30 10:51:57,15.08838121,0.0001302,53.2191,53.8446,86.7252,273.3889,-4.1861e-06,-3.54e-06,0.0,0 STARLINK-4554,1 53626U 22104AQ  23242.45274838 -.00000354  00000-0 -41861-5 0  9994,2 53626  53.2191  53.8446 0001302  86.7252 273.3889 15.08838121 55840,6917.886,95.438,540.652,538.85,0.0
53626.0,STARLINK-4554,PAYLOAD,2023-08-31 12:18:07,15.08835284,0.0001262,53.2187,49.0868,87.3996,272.7141,2.2935e-05,7.7e-07,0.0,0 STARLINK-4554,1 53626U 22104AQ  23243.51259100  .00000077  00000-0  22935-4 0  9997,2 53626  53.2187  49.0868 0001262  87.3996 272.7141 15.08835284 56007,6917.895,95.438,540.633,538.887,0.0
53626.0,STARLINK-4554,PAYLOAD,2023-09-01 10:33:31,15.08848454,0.0001041,53.2198,44.9244,104.7762,255.3345,-4.8804e-05,-1.065e-05,0.0,0 STARLINK-4554,1 53626U 22104AQ  23244.43994432 -.00001065  00000-0 -48804-4 0  9996,2 53626  53.2198  44.9244 0001041 104.7762 255.3345 15.08848454 56142,6917.855,95.437,540.44,538.999,0.0
53626.0,STARLINK-4554,PAYLOAD,2023-09-01 16:55:03,15.08843618,1.19e-05,53.2186,43.7349,124.7301,235.3703,0.00010862,1.442e-05,0.0,0 STARLINK-4554,1 53626U 22104AQ  23244.70490145  .00001442  00000-0  10862-3 0  9997,2 53626  53.2186  43.7349 0000119 124.7301 235.3703 15.08843618 56871,6917.869,95.437,539.817,539.652,0.0
53626.0,STARLINK-4554,PAYLOAD,2023-09-02 10:24:19,15.08831694,0.000119,53.2141,40.4612,91.0206,269.0922,7.3289e-05,8.78e-06,0.0,0 STARLINK-4554,1 53626U 22104AQ  23245.43355451  .00000878  00000-0  73289-4 0  9993,2 53626  53.2141  40.4612 0001190  91.0206 269.0922 15.08831694 56293,6917.906,95.438,540.594,538.948,0.0
53626.0,STARLINK-4554,PAYLOAD,2023-09-02 19:56:37,15.0883719,0.0001345,53.2184,38.6779,89.2402,270.8744,3.2796e-05,2.34e-06,0.0,0 STARLINK-4554,1 53626U 22104AQ  23245.83099466  .00000234  00000-0  32796-4 0  9992,2 53626  53.2184  38.6779 0001345  89.2402 270.8744 15.08837190 57045,6917.889,95.438,540.684,538.824,0.0
53626.0,STARLINK-4554,PAYLOAD,2023-09-03 10:15:05,15.08853812,0.0001475,53.2183,36.0023,84.0699,276.0461,9.6073e-05,1.242e-05,0.0,0 STARLINK-4554,1 53626U 22104AQ  23246.42714286  .00001242  00000-0  96073-4 0  9990,2 53626  53.2183  36.0023 0001475  84.0699 276.0461 15.08853812 56449,6917.838,95.437,540.724,538.683,0.0
53626.0,STARLINK-4554,PAYLOAD,2023-09-03 21:22:46,15.08862282,0.0001991,53.2183,33.9205,98.5629,261.5589,0.00024789,3.662e-05,0.0,0 STARLINK-4554,1 53626U 22104AQ  23246.89081159  .00003662  00000-0  24789-3 0  9999,2 53626  53.2183  33.9205 0001991  98.5629 261.5589 15.08862282 56512,6917.812,95.436,541.055,538.3,0.0
53626.0,STARLINK-4554,PAYLOAD,2023-09-04 10:05:53,15.08830123,0.0001114,53.218,31.5413,88.7838,271.3282,3.0184e-05,1.93e-06,0.0,0 STARLINK-4554,1 53626U 22104AQ  23247.42075459  .00000193  00000-0  30184-4 0  9998,2 53626  53.2180  31.5413 0001114  88.7838 271.3282 15.08830123 56590,6917.911,95.438,540.546,539.005,0.0
53626.0,STARLINK-4554,PAYLOAD,2023-09-05 09:56:39,15.08840863,0.0001174,53.2183,27.0817,84.7905,275.3221,-1.2759e-06,-3.08e-06,0.0,0 STARLINK-4554,1 53626U 22104AQ  23248.41435057 -.00000308  00000-0 -12759-5 0  9991,2 53626  53.2183  27.0817 0001174  84.7905 275.3221 15.08840863 56744,6917.878,95.438,540.555,538.931,0.0
53626.0,STARLINK-4554,PAYLOAD,2023-09-06 01:50:30,15.08854667,0.0001047,53.2184,24.1085,88.2863,271.8249,6.2852e-05,7.13e-06,0.0,0 STARLINK-4554,1 53626U 22104AQ  23249.07674418  .00000713  00000-0  62852-4 0  9996,2 53626  53.2184  24.1085 0001047  88.2863 271.8249 15.08854667 56840,6917.836,95.437,540.425,538.976,0.0
53626.0,STARLINK-4554,PAYLOAD,2023-09-06 08:12:04,15.08838988,0.0001128,53.2202,22.9221,94.8975,265.2146,0.00060951,9.425e-05,0.0,0 STARLINK-4554,1 53626U 22104AQ  23249.34171633  .00009425  00000-0  60951-3 0  9993,2 53626  53.2202  22.9221 0001128  94.8975 265.2146 15.08838988 56881,6917.883,95.438,540.529,538.968,0.0
53626.0,STARLINK-4554,PAYLOAD,2023-09-06 09:47:27,15.08840899,0.0001617,53.2186,22.6218,99.5185,260.599,0.00023026,3.379e-05,0.0,0 STARLINK-4554,1 53626U 22104AQ  23249.40795327  .00003379  00000-0  23026-3 0  9996,2 53626  53.2186  22.6218 0001617  99.5185 260.5990 15.08840899 57580,6917.878,95.437,540.861,538.624,0.0
53626.0,STARLINK-4554,PAYLOAD,2023-09-06 16:08:59,15.08842118,0.0001627,53.2193,21.4334,98.5214,261.5963,0.00020065,2.907e-05,0.0,0 STARLINK-4554,1 53626U 22104AQ  23249.67291295  .00002907  00000-0  20065-3 0  9996,2 53626  53.2193  21.4334 0001627  98.5214 261.5963 15.08842118 57629,6917.874,95.437,540.864,538.613,0.0
53626.0,STARLINK-4554,PAYLOAD,2023-09-07 09:38:14,15.08839435,0.0001318,53.2207,18.1638,96.9231,263.1911,0.00013625,1.881e-05,0.0,0 STARLINK-4554,1 53626U 22104AQ  23250.40155468  .00001881  00000-0  13625-3 0  9994,2 53626  53.2207  18.1638 0001318  96.9231 263.1911 15.08839435 57048,6917.882,95.438,540.659,538.835,0.0
53626.0,STARLINK-4554,PAYLOAD,2023-09-07 17:35:09,15.08846919,0.0001302,53.2192,16.6757,92.3477,267.7664,0.00012306,1.672e-05,0.0,0 STARLINK-4554,1 53626U 22104AQ  23250.73275028  .00001672  00000-0  12306-3 0  9998,2 53626  53.2192  16.6757 0001302  92.3477 267.7664 15.08846919 57782,6917.859,95.437,540.625,538.824,0.0
53626.0,STARLINK-4554,PAYLOAD,2023-09-08 12:39:47,15.08837401,0.0001379,53.2183,13.1066,91.1539,268.9611,9.7976e-05,1.272e-05,0.0,0 STARLINK-4554,1 53626U 22104AQ  23251.52763658  .00001272  00000-0  97976-4 0  9990,2 53626  53.2183  13.1066 0001379  91.1539 268.9611 15.08837401 57902,6917.888,95.438,540.707,538.799,0.0
53626.0,STARLINK-4554,PAYLOAD,2023-09-08 15:50:33,15.08841449,0.0001159,53.2192,12.5127,85.4786,274.6339,0.00010234,1.341e-05,0.0,0 STARLINK-4554,1 53626U 22104AQ  23251.66011450  .00001341  00000-0  10234-3 0  9999,2 53626  53.2192  12.5127 0001159  85.4786 274.6339 15.08841449 57233,6917.876,95.437,540.543,538.939,0.0
53626.0,STARLINK-4554,PAYLOAD,2023-09-08 20:36:42,15.08848927,7.73e-05,53.2183,11.6167,75.6993,284.4085,0.00016331,2.313e-05,0.0,0 STARLINK-4554,1 53626U 22104AQ  23251.85882931  .00002313  00000-0  16331-3 0  9994,2 53626  53.2183  11.6167 0000773  75.6993 284.4085 15.08848927 57267,6917.853,95.437,540.253,539.183,0.0
53626.0,STARLINK-4554,PAYLOAD,2023-09-09 07:44:25,15.08827622,0.0001004,53.2192,9.5379,74.015,286.0953,-8.9252e-05,-1.707e-05,0.0,0 STARLINK-4554,1 53626U 22104AQ  23252.32252280 -.00001707  00000-0 -89252-4 0  9996,2 53626  53.2192   9.5379 0001004  74.0150 286.0953 15.08827622 57333,6917.918,95.438,540.478,539.089,0.0
53626.0,STARLINK-4554,PAYLOAD,2023-09-09 14:05:57,15.08846941,0.0001271,53.2193,8.3485,87.0616,273.0521,0.00014132,1.962e-05,0.0,0 STARLINK-4554,1 53626U 22104AQ  23252.58747386  .00001962  00000-0  14132-3 0  9995,2 53626  53.2193   8.3485 0001271  87.0616 273.0521 15.08846941 58069,6917.859,95.437,540.603,538.845,0.0
53626.0,STARLINK-4554,PAYLOAD,2023-09-10 10:45:58,15.08845557,0.0001346,53.2178,4.482,90.7768,269.3378,0.00019827,2.869e-05,0.0,0 STARLINK-4554,1 53626U 22104AQ  23253.44859588  .00002869  00000-0  19827-3 0  9992,2 53626  53.2178   4.4820 0001346  90.7768 269.3378 15.08845557 57502,6917.863,95.437,540.66,538.797,0.0
53626.0,STARLINK-4554,PAYLOAD,2023-09-10 13:56:44,15.08847247,0.0001329,53.219,3.8883,87.0535,273.061,0.0002289,3.358e-05,0.0,0 STARLINK-4554,1 53626U 22104AQ  23253.58107576  .00003358  00000-0  22890-3 0  9998,2 53626  53.2190   3.8883 0001329  87.0535 273.0610 15.08847247 58218,6917.858,95.437,540.643,538.804,0.0
53626.0,STARLINK-4554,PAYLOAD,2023-09-11 10:36:45,15.08840362,0.0001175,53.2186,0.0242,83.0012,277.1114,7.077e-05,8.39e-06,0.0,0 STARLINK-4554,1 53626U 22104AQ  23254.44219783  .00000839  00000-0  70770-4 0  9990,2 53626  53.2186   0.0242 0001175  83.0012 277.1114 15.08840362 57658,6917.879,95.438,540.557,538.931,0.0
